NORAD_CAT_ID,OBJECT_NAME,OBJECT_TYPE,EPOCH,MEAN_MOTION,ECCENTRICITY,INCLINATION,RA_OF_ASC_NODE,ARG_OF_PERICENTER,MEAN_ANOMALY,BSTAR,MEAN_MOTION_DOT,MEAN_MOTION_DDOT,TLE_LINE0,TLE_LINE1,TLE_LINE2,SEMIMAJOR_AXIS,PERIOD,APOGEE,PERIGEE,DECAYED
52334.0,STARLINK-3880,PAYLOAD,2023-08-07 11:08:33,15.08821549,0.0001099,53.2157,132.4046,84.9759,275.1358,0.0006997,0.0001086,0.0,0 STARLINK-3880,1 52334U 22045D   23219.46427515  .00010860  00000-0  69970-3 0  9990,2 52334  53.2157 132.4046 0001099  84.9759 275.1358 15.08821549 72938,6917.937,95.439,540.562,539.042,0.0
52334.0,STARLINK-3880,PAYLOAD,2023-08-07 23:51:38,15.08850748,0.0001022,53.2154,130.0256,84.2039,275.907,0.0015048,0.00023749,0.0,0 STARLINK-3880,1 52334U 22045D   23219.99419634  .00023749  00000-0  15048-2 0  9997,2 52334  53.2154 130.0256 0001022  84.2039 275.9070 15.08850748 73014,6917.848,95.437,540.42,539.006,0.0
52334.0,STARLINK-3880,PAYLOAD,2023-08-08 10:59:20,15.08853227,0.0001256,53.2148,127.9424,89.1888,270.9248,0.00071031,0.00011039,0.0,0 STARLINK-3880,1 52334U 22045D   23220.45787306  .00011039  00000-0  71031-3 0  9998,2 52334  53.2148 127.9424 0001256  89.1888 270.9248 15.08853227 73088,6917.84,95.437,540.574,538.836,0.0
52334.0,STARLINK-3880,PAYLOAD,2023-08-09 10:50:06,15.08843768,0.0002067,53.2148,123.4832,75.5882,284.5339,2.9982e-05,1.89e-06,0.0,0 STARLINK-3880,1 52334U 22045D   23221.45146682  .00000189  00000-0  29982-4 0  9998,2 52334  53.2148 123.4832 0002067  75.5882 284.5339 15.08843768 73234,6917.869,95.437,541.164,538.304,0.0
52334.0,STARLINK-3880,PAYLOAD,2023-08-10 02:43:58,15.08834776,0.0001258,53.2146,120.5096,76.2711,283.8421,0.0001553,2.184e-05,0.0,0 STARLINK-3880,1 52334U 22045D   23222.11387035  .00002184  00000-0  15530-3 0  9991,2 52334  53.2146 120.5096 0001258  76.2711 283.8421 15.08834776 73336,6917.896,95.438,540.632,538.891,0.0
52334.0,STARLINK-3880,PAYLOAD,2023-08-11 02:34:45,15.08852171,0.0001279,53.2136,116.0513,67.1024,293.0103,0.00069248,0.00010754,0.0,0 STARLINK-3880,1 52334U 22045D   23223.10746963  .00010754  00000-0  69248-3 0  9997,2 52334  53.2136 116.0513 0001279  67.1024 293.0103 15.08852171 73483,6917.843,95.437,540.593,538.823,0.0
52334.0,STARLINK-3880,PAYLOAD,2023-08-11 10:31:41,15.0884629,0.000166,53.2132,114.5628,80.2129,279.9051,0.00038436,5.835e-05,0.0,0 STARLINK-3880,1 52334U 22045D   23223.43867079  .00005835  00000-0  38436-3 0  9994,2 52334  53.2132 114.5628 0001660  80.2129 279.9051 15.08846290 73531,6917.861,95.437,540.875,538.578,0.0
52334.0,STARLINK-3880,PAYLOAD,2023-08-12 02:25:32,15.08849382,0.000118,53.2168,111.5877,92.7252,267.3875,0.00032974,4.965e-05,0.0,0 STARLINK-3880,1 52334U 22045D   23224.10106785  .00004965  00000-0  32974-3 0  9993,2 52334  53.2168 111.5877 0001180  92.7252 267.3875 15.08849382 73636,6917.852,95.437,540.533,538.9,0.0
52334.0,STARLINK-3880,PAYLOAD,2023-08-12 16:44:00,15.08840601,0.0001443,53.2163,108.9129,79.545,280.5704,0.00013455,1.854e-05,0.0,0 STARLINK-3880,1 52334U 22045D   23224.69723138  .00001854  00000-0  13455-3 0  9991,2 52334  53.2163 108.9129 0001443  79.5450 280.5704 15.08840601 73729,6917.879,95.438,540.742,538.745,0.0
52334.0,STARLINK-3880,PAYLOAD,2023-08-14 00:31:43,15.08841486,0.0001148,53.2165,102.9653,80.537,279.5751,8.4311e-05,1.054e-05,0.0,0 STARLINK-3880,1 52334U 22045D   23226.02203352  .00001054  00000-0  84311-4 0  9993,2 52334  53.2165 102.9653 0001148  80.5370 279.5751 15.08841486 73926,6917.876,95.437,540.535,538.947,0.0
52334.0,STARLINK-3880,PAYLOAD,2023-08-16 01:48:40,15.08843604,0.0001137,53.2165,93.7469,79.9559,280.1561,9.1976e-05,1.176e-05,0.0,0 STARLINK-3880,1 52334U 22045D   23228.07547287  .00001176  00000-0  91976-4 0  9998,2 52334  53.2165  93.7469 0001137  79.9559 280.1561 15.08843604 74233,6917.869,95.437,540.521,538.948,0.0
52334.0,STARLINK-3880,PAYLOAD,2023-08-17 00:04:05,15.08832984,0.000261,53.218,89.5834,69.3182,290.809,0.00030922,4.635e-05,0.0,0 STARLINK-3880,1 52334U 22045D   23229.00284499  .00004635  00000-0  30922-3 0  9991,2 52334  53.2180  89.5834 0002610  69.3182 290.8090 15.08832984 74370,6917.902,95.438,541.572,537.961,0.0
52334.0,STARLINK-3880,PAYLOAD,2023-08-17 20:44:05,15.0884803,0.0001144,53.2163,85.7179,82.9461,277.1661,0.00017225,2.455e-05,0.0,0 STARLINK-3880,1 52334U 22045D   23229.86395119  .00002455  00000-0  17225-3 0  9996,2 52334  53.2163  85.7179 0001144  82.9461 277.1661 15.08848030 74509,6917.856,95.437,540.512,538.929,0.0
52334.0,STARLINK-3880,PAYLOAD,2023-08-18 20:34:53,15.08838238,0.0001623,53.2146,81.2611,71.338,288.7789,-4.204e-05,-9.57e-06,0.0,0 STARLINK-3880,1 52334U 22045D   23230.85755875 -.00000957  00000-0 -42040-4 0  9997,2 52334  53.2146  81.2611 0001623  71.3380 288.7789 15.08838238 74650,6917.886,95.438,540.874,538.628,0.0
52334.0,STARLINK-3880,PAYLOAD,2023-08-19 23:36:26,15.08840505,0.000171,53.2154,76.2058,72.1474,287.9704,8.7333e-05,1.102e-05,0.0,0 STARLINK-3880,1 52334U 22045D   23231.98363682  .00001102  00000-0  87333-4 0  9998,2 52334  53.2154  76.2058 0001710  72.1474 287.9704 15.08840505 74825,6917.879,95.438,540.927,538.561,0.0
52334.0,STARLINK-3880,PAYLOAD,2023-08-21 12:10:18,15.08833533,0.0001011,53.2182,69.3634,87.2199,272.8909,5.8216e-05,6.39e-06,0.0,0 STARLINK-3880,1 52334U 22045D   23233.50716370  .00000639  00000-0  58216-4 0  9996,2 52334  53.2182  69.3634 0001011  87.2199 272.8909 15.08833533 75053,6917.9,95.438,540.465,539.066,0.0
52334.0,STARLINK-3880,PAYLOAD,2023-08-21 20:07:14,15.08843987,9.7e-05,53.2181,67.8771,85.835,274.2753,3.4523e-05,2.62e-06,0.0,0 STARLINK-3880,1 52334U 22045D   23233.83835788  .00000262  00000-0  34523-4 0  9994,2 52334  53.2181  67.8771 0000970  85.8350 274.2753 15.08843987 75106,6917.868,95.437,540.404,539.062,0.0
52334.0,STARLINK-3880,PAYLOAD,2023-08-22 13:36:29,15.08837314,0.0001228,53.2186,64.6067,97.9471,262.166,2.9846e-05,1.87e-06,0.0,0 STARLINK-3880,1 52334U 22045D   23234.56700501  .00000187  00000-0  29846-4 0  9997,2 52334  53.2186  64.6067 0001228  97.9471 262.1660 15.08837314 75211,6917.889,95.438,540.603,538.904,0.0
52334.0,STARLINK-3880,PAYLOAD,2023-08-24 13:18:03,15.08840974,0.0001159,53.2178,55.6851,87.3559,272.7566,0.00011465,1.537e-05,0.0,0 STARLINK-3880,1 52334U 22045D   23236.55420516  .00001537  00000-0  11465-3 0  9990,2 52334  53.2178  55.6851 0001159  87.3559 272.7566 15.08840974 75517,6917.877,95.437,540.544,538.941,0.0
52334.0,STARLINK-3880,PAYLOAD,2023-08-25 11:33:27,15.08843342,0.0001226,53.2181,51.5222,78.5852,281.5278,7.408e-05,8.91e-06,0.0,0 STARLINK-3880,1 52334U 22045D   23237.48156521  .00000891  00000-0  74080-4 0  9990,2 52334  53.2181  51.5222 0001226  78.5852 281.5278 15.08843342 75656,6917.87,95.437,540.583,538.887,0.0
52334.0,STARLINK-3880,PAYLOAD,2023-08-25 17:54:59,15.08844303,0.0001291,53.2181,50.333,75.5849,284.5286,7.7308e-05,9.43e-06,0.0,0 STARLINK-3880,1 52334U 22045D   23237.74652421  .00000943  00000-0  77308-4 0  9993,2 52334  53.2181  50.3330 0001291  75.5849 284.5286 15.08844303 75692,6917.867,95.437,540.625,538.839,0.0
52334.0,STARLINK-3880,PAYLOAD,2023-08-26 11:24:14,15.08841257,0.0001415,53.2189,47.0626,85.7791,274.3363,6.6169e-05,7.65e-06,0.0,0 STARLINK-3880,1 52334U 22045D   23238.47516571  .00000765  00000-0  66169-4 0  9994,2 52334  53.2189  47.0626 0001415  85.7791 274.3363 15.08841257 75809,6917.877,95.437,540.72,538.763,0.0
52334.0,STARLINK-3880,PAYLOAD,2023-08-26 17:45:46,15.08842362,0.0001431,53.219,45.8733,83.9577,276.1578,6.8762e-05,8.07e-06,0.0,0 STARLINK-3880,1 52334U 22045D   23238.74012475  .00000807  00000-0  68762-4 0  9996,2 52334  53.2190  45.8733 0001431  83.9577 276.1578 15.08842362 75846,6917.873,95.437,540.728,538.748,0.0
52334.0,STARLINK-3880,PAYLOAD,2023-08-27 17:36:33,15.08840575,0.000143,53.2196,41.4127,100.2473,259.868,6.8811e-05,8.07e-06,0.0,0 STARLINK-3880,1 52334U 22045D   23239.73372489  .00000807  00000-0  68811-4 0  9995,2 52334  53.2196  41.4127 0001430 100.2473 259.8680 15.08840575 75990,6917.879,95.438,540.733,538.754,0.0
52334.0,STARLINK-3880,PAYLOAD,2023-08-28 11:05:48,15.08836605,0.0001464,53.2199,38.1413,105.5854,254.53,2.8511e-05,1.66e-06,0.0,0 STARLINK-3880,1 52334U 22045D   23240.46236894  .00000166  00000-0  28511-4 0  9997,2 52334  53.2199  38.1413 0001464 105.5854 254.5300 15.08836605 76106,6917.891,95.438,540.769,538.743,0.0
52334.0,STARLINK-3880,PAYLOAD,2023-08-28 17:27:21,15.08838295,0.0001345,53.2194,36.9521,95.6844,264.4301,3.8467e-05,3.24e-06,0.0,0 STARLINK-3880,1 52334U 22045D   23240.72732831  .00000324  00000-0  38467-4 0  9995,2 52334  53.2194  36.9521 0001345  95.6844 264.4301 15.08838295 76145,6917.886,95.438,540.681,538.82,0.0
52334.0,STARLINK-3880,PAYLOAD,2023-08-29 17:18:08,15.08817976,0.0001523,53.2201,32.4918,95.1871,264.9295,0.00034707,5.237e-05,0.0,0 STARLINK-3880,1 52334U 22045D   23241.72093487  .00005237  00000-0  34707-3 0  9993,2 52334  53.2201  32.4918 0001523  95.1871 264.9295 15.08817976 76294,6917.948,95.439,540.866,538.759,0.0
52334.0,STARLINK-3880,PAYLOAD,2023-08-30 09:11:59,15.08866542,0.0001284,53.2196,29.5189,86.7711,273.3428,-0.00027861,-4.722e-05,0.0,0 STARLINK-3880,1 52334U 22045D   23242.38332556 -.00004722  00000-0 -27861-3 0  9992,2 52334  53.2196  29.5189 0001284  86.7711 273.3428 15.08866542 76393,6917.799,95.436,540.553,538.776,0.0
52334.0,STARLINK-3880,PAYLOAD,2023-08-30 13:58:09,15.08838796,0.0001279,53.2187,28.6255,89.3826,270.7312,9.3522e-05,1.201e-05,0.0,0 STARLINK-3880,1 52334U 22045D   23242.58204964  .00001201  00000-0  93522-4 0  9990,2 52334  53.2187  28.6255 0001279  89.3826 270.7312 15.08838796 76424,6917.884,95.438,540.634,538.864,0.0
52334.0,STARLINK-3880,PAYLOAD,2023-08-31 10:38:10,15.08836238,0.000167,53.2195,24.7597,85.5034,274.6149,4.2348e-05,3.86e-06,0.0,0 STARLINK-3880,1 52334U 22045D   23243.44317430  .00000386  00000-0  42348-4 0  9992,2 52334  53.2195  24.7597 0001670  85.5034 274.6149 15.08836238 76557,6917.892,95.438,540.912,538.602,0.0
